{
    "type": "FeatureCollection",
    "features": [
        {
            "type": "Feature",
            "properties": {
                "name": "adana"
            },
            "geometry": {
                "type": "Polygon",
                "coordinates": [
                    [
                        [
                            35.0713,
                            37.25
                        ],
                        [
                            35.5713,
                            37.25
                        ],
                        [
                            35.5713,
                            36.75
                        ],
                        [
                            35.0713,
                            36.75
                        ],
                        [
                            35.0713,
                            37.25
                        ]
                    ]
                ]
            }
        },
        {
            "type": "Feature",
            "properties": {
                "name": "adiyaman"
            },
            "geometry": {
                "type": "Polygon",
                "coordinates": [
                    [
                        [
                            38.0263,
                            38.0148
                        ],
                        [
                            38.5263,
                            38.0148
                        ],
                        [
                            38.5263,
                            37.5148
                        ],
                        [
                            38.0263,
                            37.5148
                        ],
                        [
                            38.0263,
                            38.0148
                        ]
                    ]
                ]
            }
        },
        {
            "type": "Feature",
            "properties": {
                "name": "afyonkarahisar"
            },
            "geometry": {
                "type": "Polygon",
                "coordinates": [
                    [
                        [
                            30.2887,
                            39.0069
                        ],
                        [
                            30.7887,
                            39.0069
                        ],
                        [
                            30.7887,
                            38.5069
                        ],
                        [
                            30.2887,
                            38.5069
                        ],
                        [
                            30.2887,
                            39.0069
                        ]
                    ]
                ]
            }
        },
        {
            "type": "Feature",
            "properties": {
                "name": "agri"
            },
            "geometry": {
                "type": "Polygon",
                "coordinates": [
                    [
                        [
                            42.8003,
                            39.9691
                        ],
                        [
                            43.3003,
                            39.9691
                        ],
                        [
                            43.3003,
                            39.4691
                        ],
                        [
                            42.8003,
                            39.4691
                        ],
                        [
                            42.8003,
                            39.9691
                        ]
                    ]
                ]
            }
        },
        {
            "type": "Feature",
            "properties": {
                "name": "amasya"
            },
            "geometry": {
                "type": "Polygon",
                "coordinates": [
                    [
                        [
                            35.5831,
                            40.8999
                        ],
                        [
                            36.0831,
                            40.8999
                        ],
                        [
                            36.0831,
                            40.3999
                        ],
                        [
                            35.5831,
                            40.3999
                        ],
                        [
                            35.5831,
                            40.8999
                        ]
                    ]
                ]
            }
        },
        {
            "type": "Feature",
            "properties": {
                "name": "ankara"
            },
            "geometry": {
                "type": "Polygon",
                "coordinates": [
                    [
                        [
                            32.6097,
                            40.1834
                        ],
                        [
                            33.1097,
                            40.1834
                        ],
                        [
                            33.1097,
                            39.6834
                        ],
                        [
                            32.6097,
                            39.6834
                        ],
                        [
                            32.6097,
                            40.1834
                        ]
                    ]
                ]
            }
        },
        {
            "type": "Feature",
            "properties": {
                "name": "antalya"
            },
            "geometry": {
                "type": "Polygon",
                "coordinates": [
                    [
                        [
                            30.4633,
                            37.1469
                        ],
                        [
                            30.9633,
                            37.1469
                        ],
                        [
                            30.9633,
                            36.6469
                        ],
                        [
                            30.4633,
                            36.6469
                        ],
                        [
                            30.4633,
                            37.1469
                        ]
                    ]
                ]
            }
        },
        {
            "type": "Feature",
            "properties": {
                "name": "artvin"
            },
            "geometry": {
                "type": "Polygon",
                "coordinates": [
                    [
                        [
                            41.5694,
                            41.4328
                        ],
                        [
                            42.0694,
                            41.4328
                        ],
                        [
                            42.0694,
                            40.9328
                        ],
                        [
                            41.5694,
                            40.9328
                        ],
                        [
                            41.5694,
                            41.4328
                        ]
                    ]
                ]
            }
        },
        {
            "type": "Feature",
            "properties": {
                "name": "aydin"
            },
            "geometry": {
                "type": "Polygon",
                "coordinates": [
                    [
                        [
                            27.5956,
                            38.106
                        ],
                        [
                            28.0956,
                            38.106
                        ],
                        [
                            28.0956,
                            37.606
                        ],
                        [
                            27.5956,
                            37.606
                        ],
                        [
                            27.5956,
                            38.106
                        ]
                    ]
                ]
            }
        },
        {
            "type": "Feature",
            "properties": {
                "name": "balikesir"
            },
            "geometry": {
                "type": "Polygon",
                "coordinates": [
                    [
                        [
                            27.6326,
                            39.8984
                        ],
                        [
                            28.1326,
                            39.8984
                        ],
                        [
                            28.1326,
                            39.3984
                        ],
                        [
                            27.6326,
                            39.3984
                        ],
                        [
                            27.6326,
                            39.8984
                        ]
                    ]
                ]
            }
        },
        {
            "type": "Feature",
            "properties": {
                "name": "bilecik"
            },
            "geometry": {
                "type": "Polygon",
                "coordinates": [
                    [
                        [
                            29.7292,
                            40.4001
                        ],
                        [
                            30.2292,
                            40.4001
                        ],
                        [
                            30.2292,
                            39.9001
                        ],
                        [
                            29.7292,
                            39.9001
                        ],
                        [
                            29.7292,
                            40.4001
                        ]
                    ]
                ]
            }
        },
        {
            "type": "Feature",
            "properties": {
                "name": "bingol"
            },
            "geometry": {
                "type": "Polygon",
                "coordinates": [
                    [
                        [
                            40.2483,
                            39.1353
                        ],
                        [
                            40.7483,
                            39.1353
                        ],
                        [
                            40.7483,
                            38.6353
                        ],
                        [
                            40.2483,
                            38.6353
                        ],
                        [
                            40.2483,
                            39.1353
                        ]
                    ]
                ]
            }
        },
        {
            "type": "Feature",
            "properties": {
                "name": "bitlis"
            },
            "geometry": {
                "type": "Polygon",
                "coordinates": [
                    [
                        [
                            41.8595,
                            38.6506
                        ],
                        [
                            42.3595,
                            38.6506
                        ],
                        [
                            42.3595,
                            38.1506
                        ],
                        [
                            41.8595,
                            38.1506
                        ],
                        [
                            41.8595,
                            38.6506
                        ]
                    ]
                ]
            }
        },
        {
            "type": "Feature",
            "properties": {
                "name": "bolu"
            },
            "geometry": {
                "type": "Polygon",
                "coordinates": [
                    [
                        [
                            31.3561,
                            40.9895
                        ],
                        [
                            31.8561,
                            40.9895
                        ],
                        [
                            31.8561,
                            40.4895
                        ],
                        [
                            31.3561,
                            40.4895
                        ],
                        [
                            31.3561,
                            40.9895
                        ]
                    ]
                ]
            }
        },
        {
            "type": "Feature",
            "properties": {
                "name": "burdur"
            },
            "geometry": {
                "type": "Polygon",
                "coordinates": [
                    [
                        [
                            30.0408,
                            37.9703
                        ],
                        [
                            30.5408,
                            37.9703
                        ],
                        [
                            30.5408,
                            37.4703
                        ],
                        [
                            30.0408,
                            37.4703
                        ],
                        [
                            30.0408,
                            37.9703
                        ]
                    ]
                ]
            }
        },
        {
            "type": "Feature",
            "properties": {
                "name": "bursa"
            },
            "geometry": {
                "type": "Polygon",
                "coordinates": [
                    [
                        [
                            28.8101,
                            40.4328
                        ],
                        [
                            29.3101,
                            40.4328
                        ],
                        [
                            29.3101,
                            39.9328
                        ],
                        [
                            28.8101,
                            39.9328
                        ],
                        [
                            28.8101,
                            40.4328
                        ]
                    ]
                ]
            }
        },
        {
            "type": "Feature",
            "properties": {
                "name": "canakkale"
            },
            "geometry": {
                "type": "Polygon",
                "coordinates": [
                    [
                        [
                            26.1586,
                            40.4053
                        ],
                        [
                            26.6586,
                            40.4053
                        ],
                        [
                            26.6586,
                            39.9053
                        ],
                        [
                            26.1586,
                            39.9053
                        ],
                        [
                            26.1586,
                            40.4053
                        ]
                    ]
                ]
            }
        },
        {
            "type": "Feature",
            "properties": {
                "name": "cankiri"
            },
            "geometry": {
                "type": "Polygon",
                "coordinates": [
                    [
                        [
                            33.3634,
                            40.8513
                        ],
                        [
                            33.8634,
                            40.8513
                        ],
                        [
                            33.8634,
                            40.3513
                        ],
                        [
                            33.3634,
                            40.3513
                        ],
                        [
                            33.3634,
                            40.8513
                        ]
                    ]
                ]
            }
        },
        {
            "type": "Feature",
            "properties": {
                "name": "corum"
            },
            "geometry": {
                "type": "Polygon",
                "coordinates": [
                    [
                        [
                            34.7037,
                            40.8006
                        ],
                        [
                            35.2037,
                            40.8006
                        ],
                        [
                            35.2037,
                            40.3006
                        ],
                        [
                            34.7037,
                            40.3006
                        ],
                        [
                            34.7037,
                            40.8006
                        ]
                    ]
                ]
            }
        },
        {
            "type": "Feature",
            "properties": {
                "name": "denizli"
            },
            "geometry": {
                "type": "Polygon",
                "coordinates": [
                    [
                        [
                            28.8463,
                            38.0265
                        ],
                        [
                            29.3463,
                            38.0265
                        ],
                        [
                            29.3463,
                            37.5265
                        ],
                        [
                            28.8463,
                            37.5265
                        ],
                        [
                            28.8463,
                            38.0265
                        ]
                    ]
                ]
            }
        },
        {
            "type": "Feature",
            "properties": {
                "name": "diyarbakir"
            },
            "geometry": {
                "type": "Polygon",
                "coordinates": [
                    [
                        [
                            39.9806,
                            38.1644
                        ],
                        [
                            40.4806,
                            38.1644
                        ],
                        [
                            40.4806,
                            37.6644
                        ],
                        [
                            39.9806,
                            37.6644
                        ],
                        [
                            39.9806,
                            38.1644
                        ]
                    ]
                ]
            }
        },
        {
            "type": "Feature",
            "properties": {
                "name": "edirne"
            },
            "geometry": {
                "type": "Polygon",
                "coordinates": [
                    [
                        [
                            26.3057,
                            41.9271
                        ],
                        [
                            26.8057,
                            41.9271
                        ],
                        [
                            26.8057,
                            41.4271
                        ],
                        [
                            26.3057,
                            41.4271
                        ],
                        [
                            26.3057,
                            41.9271
                        ]
                    ]
                ]
            }
        },
        {
            "type": "Feature",
            "properties": {
                "name": "elazig"
            },
            "geometry": {
                "type": "Polygon",
                "coordinates": [
                    [
                        [
                            38.9764,
                            38.9248
                        ],
                        [
                            39.4764,
                            38.9248
                        ],
                        [
                            39.4764,
                            38.4248
                        ],
                        [
                            38.9764,
                            38.4248
                        ],
                        [
                            38.9764,
                            38.9248
                        ]
                    ]
                ]
            }
        },
        {
            "type": "Feature",
            "properties": {
                "name": "erzincan"
            },
            "geometry": {
                "type": "Polygon",
                "coordinates": [
                    [
                        [
                            39.2402,
                            40.0
                        ],
                        [
                            39.7402,
                            40.0
                        ],
                        [
                            39.7402,
                            39.5
                        ],
                        [
                            39.2402,
                            39.5
                        ],
                        [
                            39.2402,
                            40.0
                        ]
                    ]
                ]
            }
        },
        {
            "type": "Feature",
            "properties": {
                "name": "erzurum"
            },
            "geometry": {
                "type": "Polygon",
                "coordinates": [
                    [
                        [
                            41.0269,
                            40.15
                        ],
                        [
                            41.5269,
                            40.15
                        ],
                        [
                            41.5269,
                            39.65
                        ],
                        [
                            41.0269,
                            39.65
                        ],
                        [
                            41.0269,
                            40.15
                        ]
                    ]
                ]
            }
        },
        {
            "type": "Feature",
            "properties": {
                "name": "eskisehir"
            },
            "geometry": {
                "type": "Polygon",
                "coordinates": [
                    [
                        [
                            30.2756,
                            40.0267
                        ],
                        [
                            30.7756,
                            40.0267
                        ],
                        [
                            30.7756,
                            39.5267
                        ],
                        [
                            30.2756,
                            39.5267
                        ],
                        [
                            30.2756,
                            40.0267
                        ]
                    ]
                ]
            }
        },
        {
            "type": "Feature",
            "properties": {
                "name": "gaziantep"
            },
            "geometry": {
                "type": "Polygon",
                "coordinates": [
                    [
                        [
                            37.1333,
                            37.3162
                        ],
                        [
                            37.6333,
                            37.3162
                        ],
                        [
                            37.6333,
                            36.8162
                        ],
                        [
                            37.1333,
                            36.8162
                        ],
                        [
                            37.1333,
                            37.3162
                        ]
                    ]
                ]
            }
        },
        {
            "type": "Feature",
            "properties": {
                "name": "giresun"
            },
            "geometry": {
                "type": "Polygon",
                "coordinates": [
                    [
                        [
                            38.1374,
                            41.1628
                        ],
                        [
                            38.6374,
                            41.1628
                        ],
                        [
                            38.6374,
                            40.6628
                        ],
                        [
                            38.1374,
                            40.6628
                        ],
                        [
                            38.1374,
                            41.1628
                        ]
                    ]
                ]
            }
        },
        {
            "type": "Feature",
            "properties": {
                "name": "gumushane"
            },
            "geometry": {
                "type": "Polygon",
                "coordinates": [
                    [
                        [
                            39.2314,
                            40.7103
                        ],
                        [
                            39.7314,
                            40.7103
                        ],
                        [
                            39.7314,
                            40.2103
                        ],
                        [
                            39.2314,
                            40.2103
                        ],
                        [
                            39.2314,
                            40.7103
                        ]
                    ]
                ]
            }
        },
        {
            "type": "Feature",
            "properties": {
                "name": "hakkari"
            },
            "geometry": {
                "type": "Polygon",
                "coordinates": [
                    [
                        [
                            43.4908,
                            37.8244
                        ],
                        [
                            43.9908,
                            37.8244
                        ],
                        [
                            43.9908,
                            37.3244
                        ],
                        [
                            43.4908,
                            37.3244
                        ],
                        [
                            43.4908,
                            37.8244
                        ]
                    ]
                ]
            }
        },
        {
            "type": "Feature",
            "properties": {
                "name": "hatay"
            },
            "geometry": {
                "type": "Polygon",
                "coordinates": [
                    [
                        [
                            35.9523,
                            36.6518
                        ],
                        [
                            36.4523,
                            36.6518
                        ],
                        [
                            36.4523,
                            36.1518
                        ],
                        [
                            35.9523,
                            36.1518
                        ],
                        [
                            35.9523,
                            36.6518
                        ]
                    ]
                ]
            }
        },
        {
            "type": "Feature",
            "properties": {
                "name": "isparta"
            },
            "geometry": {
                "type": "Polygon",
                "coordinates": [
                    [
                        [
                            30.3066,
                            38.0148
                        ],
                        [
                            30.8066,
                            38.0148
                        ],
                        [
                            30.8066,
                            37.5148
                        ],
                        [
                            30.3066,
                            37.5148
                        ],
                        [
                            30.3066,
                            38.0148
                        ]
                    ]
                ]
            }
        },
        {
            "type": "Feature",
            "properties": {
                "name": "mersin"
            },
            "geometry": {
                "type": "Polygon",
                "coordinates": [
                    [
                        [
                            34.3915,
                            37.0621
                        ],
                        [
                            34.8915,
                            37.0621
                        ],
                        [
                            34.8915,
                            36.5621
                        ],
                        [
                            34.3915,
                            36.5621
                        ],
                        [
                            34.3915,
                            37.0621
                        ]
                    ]
                ]
            }
        },
        {
            "type": "Feature",
            "properties": {
                "name": "istanbul"
            },
            "geometry": {
                "type": "Polygon",
                "coordinates": [
                    [
                        [
                            28.7284,
                            41.2582
                        ],
                        [
                            29.2284,
                            41.2582
                        ],
                        [
                            29.2284,
                            40.7582
                        ],
                        [
                            28.7284,
                            40.7582
                        ],
                        [
                            28.7284,
                            41.2582
                        ]
                    ]
                ]
            }
        },
        {
            "type": "Feature",
            "properties": {
                "name": "izmir"
            },
            "geometry": {
                "type": "Polygon",
                "coordinates": [
                    [
                        [
                            26.8928,
                            38.6737
                        ],
                        [
                            27.3928,
                            38.6737
                        ],
                        [
                            27.3928,
                            38.1737
                        ],
                        [
                            26.8928,
                            38.1737
                        ],
                        [
                            26.8928,
                            38.6737
                        ]
                    ]
                ]
            }
        },
        {
            "type": "Feature",
            "properties": {
                "name": "kars"
            },
            "geometry": {
                "type": "Polygon",
                "coordinates": [
                    [
                        [
                            42.8475,
                            40.8513
                        ],
                        [
                            43.3475,
                            40.8513
                        ],
                        [
                            43.3475,
                            40.3513
                        ],
                        [
                            42.8475,
                            40.3513
                        ],
                        [
                            42.8475,
                            40.8513
                        ]
                    ]
                ]
            }
        },
        {
            "type": "Feature",
            "properties": {
                "name": "kastamonu"
            },
            "geometry": {
                "type": "Polygon",
                "coordinates": [
                    [
                        [
                            33.5253,
                            41.6387
                        ],
                        [
                            34.0253,
                            41.6387
                        ],
                        [
                            34.0253,
                            41.1387
                        ],
                        [
                            33.5253,
                            41.1387
                        ],
                        [
                            33.5253,
                            41.6387
                        ]
                    ]
                ]
            }
        },
        {
            "type": "Feature",
            "properties": {
                "name": "kayseri"
            },
            "geometry": {
                "type": "Polygon",
                "coordinates": [
                    [
                        [
                            35.2326,
                            38.9705
                        ],
                        [
                            35.7326,
                            38.9705
                        ],
                        [
                            35.7326,
                            38.4705
                        ],
                        [
                            35.2326,
                            38.4705
                        ],
                        [
                            35.2326,
                            38.9705
                        ]
                    ]
                ]
            }
        },
        {
            "type": "Feature",
            "properties": {
                "name": "kirklareli"
            },
            "geometry": {
                "type": "Polygon",
                "coordinates": [
                    [
                        [
                            26.9752,
                            41.9851
                        ],
                        [
                            27.4752,
                            41.9851
                        ],
                        [
                            27.4752,
                            41.4851
                        ],
                        [
                            26.9752,
                            41.4851
                        ],
                        [
                            26.9752,
                            41.9851
                        ]
                    ]
                ]
            }
        },
        {
            "type": "Feature",
            "properties": {
                "name": "kirsehir"
            },
            "geometry": {
                "type": "Polygon",
                "coordinates": [
                    [
                        [
                            33.91,
                            39.3925
                        ],
                        [
                            34.41,
                            39.3925
                        ],
                        [
                            34.41,
                            38.8925
                        ],
                        [
                            33.91,
                            38.8925
                        ],
                        [
                            33.91,
                            39.3925
                        ]
                    ]
                ]
            }
        },
        {
            "type": "Feature",
            "properties": {
                "name": "kocaeli"
            },
            "geometry": {
                "type": "Polygon",
                "coordinates": [
                    [
                        [
                            29.6695,
                            41.1033
                        ],
                        [
                            30.1695,
                            41.1033
                        ],
                        [
                            30.1695,
                            40.6033
                        ],
                        [
                            29.6695,
                            40.6033
                        ],
                        [
                            29.6695,
                            41.1033
                        ]
                    ]
                ]
            }
        },
        {
            "type": "Feature",
            "properties": {
                "name": "konya"
            },
            "geometry": {
                "type": "Polygon",
                "coordinates": [
                    [
                        [
                            32.2346,
                            38.1246
                        ],
                        [
                            32.7346,
                            38.1246
                        ],
                        [
                            32.7346,
                            37.6246
                        ],
                        [
                            32.2346,
                            37.6246
                        ],
                        [
                            32.2346,
                            38.1246
                        ]
                    ]
                ]
            }
        },
        {
            "type": "Feature",
            "properties": {
                "name": "kutahya"
            },
            "geometry": {
                "type": "Polygon",
                "coordinates": [
                    [
                        [
                            29.7333,
                            39.6667
                        ],
                        [
                            30.2333,
                            39.6667
                        ],
                        [
                            30.2333,
                            39.1667
                        ],
                        [
                            29.7333,
                            39.1667
                        ],
                        [
                            29.7333,
                            39.6667
                        ]
                    ]
                ]
            }
        },
        {
            "type": "Feature",
            "properties": {
                "name": "malatya"
            },
            "geometry": {
                "type": "Polygon",
                "coordinates": [
                    [
                        [
                            38.1052,
                            38.6054
                        ],
                        [
                            38.6052,
                            38.6054
                        ],
                        [
                            38.6052,
                            38.1054
                        ],
                        [
                            38.1052,
                            38.1054
                        ],
                        [
                            38.1052,
                            38.6054
                        ]
                    ]
                ]
            }
        },
        {
            "type": "Feature",
            "properties": {
                "name": "manisa"
            },
            "geometry": {
                "type": "Polygon",
                "coordinates": [
                    [
                        [
                            27.1765,
                            38.8691
                        ],
                        [
                            27.6765,
                            38.8691
                        ],
                        [
                            27.6765,
                            38.3691
                        ],
                        [
                            27.1765,
                            38.3691
                        ],
                        [
                            27.1765,
                            38.8691
                        ]
                    ]
                ]
            }
        },
        {
            "type": "Feature",
            "properties": {
                "name": "kahramanmaras"
            },
            "geometry": {
                "type": "Polygon",
                "coordinates": [
                    [
                        [
                            36.6871,
                            37.8253
                        ],
                        [
                            37.1871,
                            37.8253
                        ],
                        [
                            37.1871,
                            37.3253
                        ],
                        [
                            36.6871,
                            37.3253
                        ],
                        [
                            36.6871,
                            37.8253
                        ]
                    ]
                ]
            }
        },
        {
            "type": "Feature",
            "properties": {
                "name": "mardin"
            },
            "geometry": {
                "type": "Polygon",
                "coordinates": [
                    [
                        [
                            40.4851,
                            37.5712
                        ],
                        [
                            40.9851,
                            37.5712
                        ],
                        [
                            40.9851,
                            37.0712
                        ],
                        [
                            40.4851,
                            37.0712
                        ],
                        [
                            40.4851,
                            37.5712
                        ]
                    ]
                ]
            }
        },
        {
            "type": "Feature",
            "properties": {
                "name": "mugla"
            },
            "geometry": {
                "type": "Polygon",
                "coordinates": [
                    [
                        [
                            28.1165,
                            37.4653
                        ],
                        [
                            28.6165,
                            37.4653
                        ],
                        [
                            28.6165,
                            36.9653
                        ],
                        [
                            28.1165,
                            36.9653
                        ],
                        [
                            28.1165,
                            37.4653
                        ]
                    ]
                ]
            }
        },
        {
            "type": "Feature",
            "properties": {
                "name": "mus"
            },
            "geometry": {
                "type": "Polygon",
                "coordinates": [
                    [
                        [
                            41.241,
                            39.1962
                        ],
                        [
                            41.741,
                            39.1962
                        ],
                        [
                            41.741,
                            38.6962
                        ],
                        [
                            41.241,
                            38.6962
                        ],
                        [
                            41.241,
                            39.1962
                        ]
                    ]
                ]
            }
        },
        {
            "type": "Feature",
            "properties": {
                "name": "nevsehir"
            },
            "geometry": {
                "type": "Polygon",
                "coordinates": [
                    [
                        [
                            34.4357,
                            38.8744
                        ],
                        [
                            34.9357,
                            38.8744
                        ],
                        [
                            34.9357,
                            38.3744
                        ],
                        [
                            34.4357,
                            38.3744
                        ],
                        [
                            34.4357,
                            38.8744
                        ]
                    ]
                ]
            }
        },
        {
            "type": "Feature",
            "properties": {
                "name": "nigde"
            },
            "geometry": {
                "type": "Polygon",
                "coordinates": [
                    [
                        [
                            34.4293,
                            38.2167
                        ],
                        [
                            34.9293,
                            38.2167
                        ],
                        [
                            34.9293,
                            37.7167
                        ],
                        [
                            34.4293,
                            37.7167
                        ],
                        [
                            34.4293,
                            38.2167
                        ]
                    ]
                ]
            }
        },
        {
            "type": "Feature",
            "properties": {
                "name": "ordu"
            },
            "geometry": {
                "type": "Polygon",
                "coordinates": [
                    [
                        [
                            37.6297,
                            41.2362
                        ],
                        [
                            38.1297,
                            41.2362
                        ],
                        [
                            38.1297,
                            40.7362
                        ],
                        [
                            37.6297,
                            40.7362
                        ],
                        [
                            37.6297,
                            41.2362
                        ]
                    ]
                ]
            }
        },
        {
            "type": "Feature",
            "properties": {
                "name": "rize"
            },
            "geometry": {
                "type": "Polygon",
                "coordinates": [
                    [
                        [
                            40.2677,
                            41.2701
                        ],
                        [
                            40.7677,
                            41.2701
                        ],
                        [
                            40.7677,
                            40.7701
                        ],
                        [
                            40.2677,
                            40.7701
                        ],
                        [
                            40.2677,
                            41.2701
                        ]
                    ]
                ]
            }
        },
        {
            "type": "Feature",
            "properties": {
                "name": "sakarya"
            },
            "geometry": {
                "type": "Polygon",
                "coordinates": [
                    [
                        [
                            30.1533,
                            41.0069
                        ],
                        [
                            30.6533,
                            41.0069
                        ],
                        [
                            30.6533,
                            40.5069
                        ],
                        [
                            30.1533,
                            40.5069
                        ],
                        [
                            30.1533,
                            41.0069
                        ]
                    ]
                ]
            }
        },
        {
            "type": "Feature",
            "properties": {
                "name": "samsun"
            },
            "geometry": {
                "type": "Polygon",
                "coordinates": [
                    [
                        [
                            36.0861,
                            41.5367
                        ],
                        [
                            36.5861,
                            41.5367
                        ],
                        [
                            36.5861,
                            41.0367
                        ],
                        [
                            36.0861,
                            41.0367
                        ],
                        [
                            36.0861,
                            41.5367
                        ]
                    ]
                ]
            }
        },
        {
            "type": "Feature",
            "properties": {
                "name": "siirt"
            },
            "geometry": {
                "type": "Polygon",
                "coordinates": [
                    [
                        [
                            41.6958,
                            38.1833
                        ],
                        [
                            42.1958,
                            38.1833
                        ],
                        [
                            42.1958,
                            37.6833
                        ],
                        [
                            41.6958,
                            37.6833
                        ],
                        [
                            41.6958,
                            38.1833
                        ]
                    ]
                ]
            }
        },
        {
            "type": "Feature",
            "properties": {
                "name": "sinop"
            },
            "geometry": {
                "type": "Polygon",
                "coordinates": [
                    [
                        [
                            34.9031,
                            42.2764
                        ],
                        [
                            35.4031,
                            42.2764
                        ],
                        [
                            35.4031,
                            41.7764
                        ],
                        [
                            34.9031,
                            41.7764
                        ],
                        [
                            34.9031,
                            42.2764
                        ]
                    ]
                ]
            }
        },
        {
            "type": "Feature",
            "properties": {
                "name": "sivas"
            },
            "geometry": {
                "type": "Polygon",
                "coordinates": [
                    [
                        [
                            36.765,
                            39.9977
                        ],
                        [
                            37.265,
                            39.9977
                        ],
                        [
                            37.265,
                            39.4977
                        ],
                        [
                            36.765,
                            39.4977
                        ],
                        [
                            36.765,
                            39.9977
                        ]
                    ]
                ]
            }
        },
        {
            "type": "Feature",
            "properties": {
                "name": "tekirdag"
            },
            "geometry": {
                "type": "Polygon",
                "coordinates": [
                    [
                        [
                            27.2617,
                            41.228
                        ],
                        [
                            27.7617,
                            41.228
                        ],
                        [
                            27.7617,
                            40.728
                        ],
                        [
                            27.2617,
                            40.728
                        ],
                        [
                            27.2617,
                            41.228
                        ]
                    ]
                ]
            }
        },
        {
            "type": "Feature",
            "properties": {
                "name": "tokat"
            },
            "geometry": {
                "type": "Polygon",
                "coordinates": [
                    [
                        [
                            36.3044,
                            40.5667
                        ],
                        [
                            36.8044,
                            40.5667
                        ],
                        [
                            36.8044,
                            40.0667
                        ],
                        [
                            36.3044,
                            40.0667
                        ],
                        [
                            36.3044,
                            40.5667
                        ]
                    ]
                ]
            }
        },
        {
            "type": "Feature",
            "properties": {
                "name": "trabzon"
            },
            "geometry": {
                "type": "Polygon",
                "coordinates": [
                    [
                        [
                            39.4668,
                            41.2515
                        ],
                        [
                            39.9668,
                            41.2515
                        ],
                        [
                            39.9668,
                            40.7515
                        ],
                        [
                            39.4668,
                            40.7515
                        ],
                        [
                            39.4668,
                            41.2515
                        ]
                    ]
                ]
            }
        },
        {
            "type": "Feature",
            "properties": {
                "name": "tunceli"
            },
            "geometry": {
                "type": "Polygon",
                "coordinates": [
                    [
                        [
                            39.2983,
                            39.3562
                        ],
                        [
                            39.7983,
                            39.3562
                        ],
                        [
                            39.7983,
                            38.8562
                        ],
                        [
                            39.2983,
                            38.8562
                        ],
                        [
                            39.2983,
                            39.3562
                        ]
                    ]
                ]
            }
        },
        {
            "type": "Feature",
            "properties": {
                "name": "sanliurfa"
            },
            "geometry": {
                "type": "Polygon",
                "coordinates": [
                    [
                        [
                            38.5455,
                            37.4174
                        ],
                        [
                            39.0455,
                            37.4174
                        ],
                        [
                            39.0455,
                            36.9174
                        ],
                        [
                            38.5455,
                            36.9174
                        ],
                        [
                            38.5455,
                            37.4174
                        ]
                    ]
                ]
            }
        },
        {
            "type": "Feature",
            "properties": {
                "name": "usak"
            },
            "geometry": {
                "type": "Polygon",
                "coordinates": [
                    [
                        [
                            29.1558,
                            38.9323
                        ],
                        [
                            29.6558,
                            38.9323
                        ],
                        [
                            29.6558,
                            38.4323
                        ],
                        [
                            29.1558,
                            38.4323
                        ],
                        [
                            29.1558,
                            38.9323
                        ]
                    ]
                ]
            }
        },
        {
            "type": "Feature",
            "properties": {
                "name": "van"
            },
            "geometry": {
                "type": "Polygon",
                "coordinates": [
                    [
                        [
                            43.13,
                            38.7512
                        ],
                        [
                            43.63,
                            38.7512
                        ],
                        [
                            43.63,
                            38.2512
                        ],
                        [
                            43.13,
                            38.2512
                        ],
                        [
                            43.13,
                            38.7512
                        ]
                    ]
                ]
            }
        },
        {
            "type": "Feature",
            "properties": {
                "name": "yozgat"
            },
            "geometry": {
                "type": "Polygon",
                "coordinates": [
                    [
                        [
                            34.5647,
                            40.0681
                        ],
                        [
                            35.0647,
                            40.0681
                        ],
                        [
                            35.0647,
                            39.5681
                        ],
                        [
                            34.5647,
                            39.5681
                        ],
                        [
                            34.5647,
                            40.0681
                        ]
                    ]
                ]
            }
        },
        {
            "type": "Feature",
            "properties": {
                "name": "zonguldak"
            },
            "geometry": {
                "type": "Polygon",
                "coordinates": [
                    [
                        [
                            31.5487,
                            41.7064
                        ],
                        [
                            32.0487,
                            41.7064
                        ],
                        [
                            32.0487,
                            41.2064
                        ],
                        [
                            31.5487,
                            41.2064
                        ],
                        [
                            31.5487,
                            41.7064
                        ]
                    ]
                ]
            }
        },
        {
            "type": "Feature",
            "properties": {
                "name": "aksaray"
            },
            "geometry": {
                "type": "Polygon",
                "coordinates": [
                    [
                        [
                            33.7754,
                            38.6187
                        ],
                        [
                            34.2754,
                            38.6187
                        ],
                        [
                            34.2754,
                            38.1187
                        ],
                        [
                            33.7754,
                            38.1187
                        ],
                        [
                            33.7754,
                            38.6187
                        ]
                    ]
                ]
            }
        },
        {
            "type": "Feature",
            "properties": {
                "name": "bayburt"
            },
            "geometry": {
                "type": "Polygon",
                "coordinates": [
                    [
                        [
                            39.9749,
                            40.5052
                        ],
                        [
                            40.4749,
                            40.5052
                        ],
                        [
                            40.4749,
                            40.0052
                        ],
                        [
                            39.9749,
                            40.0052
                        ],
                        [
                            39.9749,
                            40.5052
                        ]
                    ]
                ]
            }
        },
        {
            "type": "Feature",
            "properties": {
                "name": "karaman"
            },
            "geometry": {
                "type": "Polygon",
                "coordinates": [
                    [
                        [
                            32.965,
                            37.4259
                        ],
                        [
                            33.465,
                            37.4259
                        ],
                        [
                            33.465,
                            36.9259
                        ],
                        [
                            32.965,
                            36.9259
                        ],
                        [
                            32.965,
                            37.4259
                        ]
                    ]
                ]
            }
        },
        {
            "type": "Feature",
            "properties": {
                "name": "kirikkale"
            },
            "geometry": {
                "type": "Polygon",
                "coordinates": [
                    [
                        [
                            33.2653,
                            40.0968
                        ],
                        [
                            33.7653,
                            40.0968
                        ],
                        [
                            33.7653,
                            39.5968
                        ],
                        [
                            33.2653,
                            39.5968
                        ],
                        [
                            33.2653,
                            40.0968
                        ]
                    ]
                ]
            }
        },
        {
            "type": "Feature",
            "properties": {
                "name": "batman"
            },
            "geometry": {
                "type": "Polygon",
                "coordinates": [
                    [
                        [
                            40.8793,
                            38.1312
                        ],
                        [
                            41.3793,
                            38.1312
                        ],
                        [
                            41.3793,
                            37.6312
                        ],
                        [
                            40.8793,
                            37.6312
                        ],
                        [
                            40.8793,
                            38.1312
                        ]
                    ]
                ]
            }
        },
        {
            "type": "Feature",
            "properties": {
                "name": "sirnak"
            },
            "geometry": {
                "type": "Polygon",
                "coordinates": [
                    [
                        [
                            42.2094,
                            37.6687
                        ],
                        [
                            42.7094,
                            37.6687
                        ],
                        [
                            42.7094,
                            37.1687
                        ],
                        [
                            42.2094,
                            37.1687
                        ],
                        [
                            42.2094,
                            37.6687
                        ]
                    ]
                ]
            }
        },
        {
            "type": "Feature",
            "properties": {
                "name": "bartin"
            },
            "geometry": {
                "type": "Polygon",
                "coordinates": [
                    [
                        [
                            32.0875,
                            41.8311
                        ],
                        [
                            32.5875,
                            41.8311
                        ],
                        [
                            32.5875,
                            41.3311
                        ],
                        [
                            32.0875,
                            41.3311
                        ],
                        [
                            32.0875,
                            41.8311
                        ]
                    ]
                ]
            }
        },
        {
            "type": "Feature",
            "properties": {
                "name": "ardahan"
            },
            "geometry": {
                "type": "Polygon",
                "coordinates": [
                    [
                        [
                            42.4522,
                            41.3605
                        ],
                        [
                            42.9522,
                            41.3605
                        ],
                        [
                            42.9522,
                            40.8605
                        ],
                        [
                            42.4522,
                            40.8605
                        ],
                        [
                            42.4522,
                            41.3605
                        ]
                    ]
                ]
            }
        },
        {
            "type": "Feature",
            "properties": {
                "name": "igdir"
            },
            "geometry": {
                "type": "Polygon",
                "coordinates": [
                    [
                        [
                            43.795,
                            40.1737
                        ],
                        [
                            44.295,
                            40.1737
                        ],
                        [
                            44.295,
                            39.6737
                        ],
                        [
                            43.795,
                            39.6737
                        ],
                        [
                            43.795,
                            40.1737
                        ]
                    ]
                ]
            }
        },
        {
            "type": "Feature",
            "properties": {
                "name": "yalova"
            },
            "geometry": {
                "type": "Polygon",
                "coordinates": [
                    [
                        [
                            29.0269,
                            40.9049
                        ],
                        [
                            29.5269,
                            40.9049
                        ],
                        [
                            29.5269,
                            40.4049
                        ],
                        [
                            29.0269,
                            40.4049
                        ],
                        [
                            29.0269,
                            40.9049
                        ]
                    ]
                ]
            }
        },
        {
            "type": "Feature",
            "properties": {
                "name": "karabuk"
            },
            "geometry": {
                "type": "Polygon",
                "coordinates": [
                    [
                        [
                            32.3777,
                            41.4561
                        ],
                        [
                            32.8777,
                            41.4561
                        ],
                        [
                            32.8777,
                            40.9561
                        ],
                        [
                            32.3777,
                            40.9561
                        ],
                        [
                            32.3777,
                            41.4561
                        ]
                    ]
                ]
            }
        },
        {
            "type": "Feature",
            "properties": {
                "name": "kilis"
            },
            "geometry": {
                "type": "Polygon",
                "coordinates": [
                    [
                        [
                            36.8647,
                            36.9684
                        ],
                        [
                            37.3647,
                            36.9684
                        ],
                        [
                            37.3647,
                            36.4684
                        ],
                        [
                            36.8647,
                            36.4684
                        ],
                        [
                            36.8647,
                            36.9684
                        ]
                    ]
                ]
            }
        },
        {
            "type": "Feature",
            "properties": {
                "name": "osmaniye"
            },
            "geometry": {
                "type": "Polygon",
                "coordinates": [
                    [
                        [
                            35.9978,
                            37.3242
                        ],
                        [
                            36.4978,
                            37.3242
                        ],
                        [
                            36.4978,
                            36.8242
                        ],
                        [
                            35.9978,
                            36.8242
                        ],
                        [
                            35.9978,
                            37.3242
                        ]
                    ]
                ]
            }
        },
        {
            "type": "Feature",
            "properties": {
                "name": "duzce"
            },
            "geometry": {
                "type": "Polygon",
                "coordinates": [
                    [
                        [
                            30.9126,
                            41.0938
                        ],
                        [
                            31.4126,
                            41.0938
                        ],
                        [
                            31.4126,
                            40.5938
                        ],
                        [
                            30.9126,
                            40.5938
                        ],
                        [
                            30.9126,
                            41.0938
                        ]
                    ]
                ]
            }
        }
    ]
}